[{"OBJECT_NAME":"HYPERFIELD-1A","OBJECT_ID":"2024-149CY","EPOCH":"2026-03-09T18:21:25.814304","MEAN_MOTION":15.29681349,"ECCENTRICITY":0.00038648,"INCLINATION":97.3842,"RA_OF_ASC_NODE":149.5066,"ARG_OF_PERICENTER":313.7844,"MEAN_ANOMALY":46.3076,"EPHEMERIS_TYPE":0,"CLASSIFICATION_TYPE":"U","NORAD_CAT_ID":60562,"ELEMENT_SET_NO":999,"REV_AT_EPOCH":8683,"BSTAR":0.00030052114,"MEAN_MOTION_DOT":8.569e-5,"MEAN_MOTION_DDOT":0},{"OBJECT_NAME":"STARLINK-32592","OBJECT_ID":"2024-216D","EPOCH":"2026-03-09T21:43:12.180576","MEAN_MOTION":15.27601841,"ECCENTRICITY":0.00017753,"INCLINATION":43.0007,"RA_OF_ASC_NODE":262.4547,"ARG_OF_PERICENTER":283.7388,"MEAN_ANOMALY":76.3266,"EPHEMERIS_TYPE":0,"CLASSIFICATION_TYPE":"U","NORAD_CAT_ID":62035,"ELEMENT_SET_NO":999,"REV_AT_EPOCH":7383,"BSTAR":0.00099861211,"MEAN_MOTION_DOT":0.00027338,"MEAN_MOTION_DDOT":0}]
